start=new Date('2023-05-25T00:00:00.000Z').valueOf();
sats=[{"CENTER_NAME":"EARTH","OBJECT_ID":"2023-058AA","MEAN_MOTION_DDOT":"0.0000000000000","RCS_SIZE":"LARGE","MEAN_MOTION":"15.44384362","OBJECT_NAME":"STARLINK-5543","REF_FRAME":"TEME","FILE":"3916549","ARG_OF_PERICENTER":"90.1853","NORAD_CAT_ID":"56341","COUNTRY_CODE":"US","SITE":"AFWTR","PERIOD":"93.241","LAUNCH_DATE":"2023-04-27","MEAN_MOTION_DOT":"-0.00898253","INCLINATION":"97.6552","REV_AT_EPOCH":"130","TLE_LINE1":"1 56341U 23058AA  23144.91667824 -.00898253  00000-0 -21154-1 0  9995","EPOCH":"2023-05-24T22:00:00.999936","BSTAR":"-0.02115400000000","MEAN_ELEMENT_THEORY":"SGP4","SEMIMAJOR_AXIS":"6811.325","APOAPSIS":"434.240","ECCENTRICITY":"0.00015420","TLE_LINE2":"2 56341  97.6552 145.6103 0001542  90.1853 321.8575 15.44384362  1308","GP_ID":"232453740","CLASSIFICATION_TYPE":"U","PERIAPSIS":"432.139","ELEMENT_SET_NO":"999","RA_OF_ASC_NODE":"145.6103","EPHEMERIS_TYPE":"0","TIME_SYSTEM":"UTC","DECAY_DATE":null,"MEAN_ANOMALY":"321.8575","OBJECT_TYPE":"PAYLOAD"},{"MEAN_MOTION_DDOT":"0.0000000000000","OBJECT_ID":"2023-058AB","CENTER_NAME":"EARTH","RCS_SIZE":"LARGE","REF_FRAME":"TEME","OBJECT_NAME":"STARLINK-5955","MEAN_MOTION":"15.44077922","NORAD_CAT_ID":"56342","ARG_OF_PERICENTER":"90.1903","FILE":"3916549","COUNTRY_CODE":"US","SITE":"AFWTR","LAUNCH_DATE":"2023-04-27","INCLINATION":"97.6554","MEAN_MOTION_DOT":"-0.00897422","PERIOD":"93.260","REV_AT_EPOCH":"130","EPOCH":"2023-05-24T22:00:00.999936","TLE_LINE1":"1 56342U 23058AB  23144.91667824 -.00897422  00000-0 -21354-1 0  9995","BSTAR":"-0.02135400000000","MEAN_ELEMENT_THEORY":"SGP4","APOAPSIS":"435.141","SEMIMAJOR_AXIS":"6812.226","GP_ID":"232453633","TLE_LINE2":"2 56342  97.6554 145.6087 0001541  90.1903 318.4439 15.44077922  1309","ECCENTRICITY":"0.00015410","PERIAPSIS":"433.041","CLASSIFICATION_TYPE":"U","ELEMENT_SET_NO":"999","RA_OF_ASC_NODE":"145.6087","EPHEMERIS_TYPE":"0","TIME_SYSTEM":"UTC","DECAY_DATE":null,"OBJECT_TYPE":"PAYLOAD","MEAN_ANOMALY":"318.4439"},{"ARG_OF_PERICENTER":"82.1606","NORAD_CAT_ID":"56343","FILE":"3916549","OBJECT_NAME":"STARLINK-5976","REF_FRAME":"TEME","MEAN_MOTION":"15.44534007","RCS_SIZE":"LARGE","MEAN_MOTION_DDOT":"0.0000000000000","OBJECT_ID":"2023-058AC","CENTER_NAME":"EARTH","MEAN_ELEMENT_THEORY":"SGP4","BSTAR":"-0.02120700000000","EPOCH":"2023-05-24T22:00:00.999936","TLE_LINE1":"1 56343U 23058AC  23144.91667824 -.00904560  00000-0 -21207-1 0  9995","REV_AT_EPOCH":"130","MEAN_MOTION_DOT":"-0.00904560","LAUNCH_DATE":"2023-04-27","INCLINATION":"97.6551","PERIOD":"93.232","SITE":"AFWTR","COUNTRY_CODE":"US","ELEMENT_SET_NO":"999","PERIAPSIS":"431.733","CLASSIFICATION_TYPE":"U","TLE_LINE2":"2 56343  97.6551 145.6112 0001492  82.1606 331.7779 15.44534007  1309","GP_ID":"232453684","ECCENTRICITY":"0.00014920","APOAPSIS":"433.766","SEMIMAJOR_AXIS":"6810.885","OBJECT_TYPE":"PAYLOAD","MEAN_ANOMALY":"331.7779","DECAY_DATE":null,"TIME_SYSTEM":"UTC","EPHEMERIS_TYPE":"0","RA_OF_ASC_NODE":"145.6112"},{"GP_ID":"232453817","TLE_LINE2":"2 56344  97.6554 145.6098 0001554  89.3758 321.5779 15.44286857  1306","ECCENTRICITY":"0.00015540","ELEMENT_SET_NO":"999","PERIAPSIS":"432.418","CLASSIFICATION_TYPE":"U","APOAPSIS":"434.535","SEMIMAJOR_AXIS":"6811.611","DECAY_DATE":null,"TIME_SYSTEM":"UTC","OBJECT_TYPE":"PAYLOAD","MEAN_ANOMALY":"321.5779","EPHEMERIS_TYPE":"0","RA_OF_ASC_NODE":"145.6098","NORAD_CAT_ID":"56344","ARG_OF_PERICENTER":"89.3758","FILE":"3916549","OBJECT_NAME":"STARLINK-5974","REF_FRAME":"TEME","MEAN_MOTION":"15.44286857","RCS_SIZE":"LARGE","OBJECT_ID":"2023-058AD","MEAN_MOTION_DDOT":"0.0000000000000","CENTER_NAME":"EARTH","REV_AT_EPOCH":"130","INCLINATION":"97.6554","LAUNCH_DATE":"2023-04-27","MEAN_MOTION_DOT":"-0.00896956","PERIOD":"93.247","MEAN_ELEMENT_THEORY":"SGP4","BSTAR":"-0.02119100000000","EPOCH":"2023-05-24T22:00:00.999936","TLE_LINE1":"1 56344U 23058AD  23144.91667824 -.00896956  00000-0 -21191-1 0  9997","COUNTRY_CODE":"US","SITE":"AFWTR"},{"SITE":"AFWTR","COUNTRY_CODE":"US","MEAN_ELEMENT_THEORY":"SGP4","BSTAR":"-0.02087600000000","EPOCH":"2023-05-24T22:00:00.999936","TLE_LINE1":"1 56345U 23058AE  23144.91667824 -.00896933  00000-0 -20876-1 0  9992","REV_AT_EPOCH":"130","MEAN_MOTION_DOT":"-0.00896933","LAUNCH_DATE":"2023-04-27","INCLINATION":"97.6551","PERIOD":"93.220","RCS_SIZE":"LARGE","OBJECT_ID":"2023-058AE","MEAN_MOTION_DDOT":"0.0000000000000","CENTER_NAME":"EARTH","ARG_OF_PERICENTER":"89.5110","NORAD_CAT_ID":"56345","FILE":"3916549","OBJECT_NAME":"STARLINK-5979","REF_FRAME":"TEME","MEAN_MOTION":"15.44725921","EPHEMERIS_TYPE":"0","RA_OF_ASC_NODE":"145.6121","MEAN_ANOMALY":"326.5223","OBJECT_TYPE":"PAYLOAD","TIME_SYSTEM":"UTC","DECAY_DATE":null,"APOAPSIS":"433.248","SEMIMAJOR_AXIS":"6810.321","ELEMENT_SET_NO":"999","PERIAPSIS":"431.123","CLASSIFICATION_TYPE":"U","GP_ID":"232453977","TLE_LINE2":"2 56345  97.6551 145.6121 0001560  89.5110 326.5223 15.44725921  1301","ECCENTRICITY":"0.00015600"},{"DECAY_DATE":null,"TIME_SYSTEM":"UTC","MEAN_ANOMALY":"324.3137","OBJECT_TYPE":"PAYLOAD","RA_OF_ASC_NODE":"145.6106","EPHEMERIS_TYPE":"0","ECCENTRICITY":"0.00015600","TLE_LINE2":"2 56346  97.6551 145.6106 0001560  88.4806 324.3137 15.44415129  1301","GP_ID":"232453868","CLASSIFICATION_TYPE":"U","PERIAPSIS":"432.037","ELEMENT_SET_NO":"999","SEMIMAJOR_AXIS":"6811.234","APOAPSIS":"434.162","PERIOD":"93.239","LAUNCH_DATE":"2023-04-27","INCLINATION":"97.6551","MEAN_MOTION_DOT":"-0.00896535","REV_AT_EPOCH":"130","TLE_LINE1":"1 56346U 23058AF  23144.91667824 -.00896535  00000-0 -21088-1 0  9997","EPOCH":"2023-05-24T22:00:00.999936","BSTAR":"-0.02108800000000","MEAN_ELEMENT_THEORY":"SGP4","COUNTRY_CODE":"US","SITE":"AFWTR","MEAN_MOTION":"15.44415129","OBJECT_NAME":"STARLINK-5837","REF_FRAME":"TEME","FILE":"3916549","NORAD_CAT_ID":"56346","ARG_OF_PERICENTER":"88.4806","CENTER_NAME":"EARTH","MEAN_MOTION_DDOT":"0.0000000000000","OBJECT_ID":"2023-058AF","RCS_SIZE":"LARGE"},{"PERIAPSIS":"431.069","CLASSIFICATION_TYPE":"U","ELEMENT_SET_NO":"999","TLE_LINE2":"2 56347  97.6551 145.6124 0001563  88.7550 327.9470 15.44743697  1307","GP_ID":"232453920","ECCENTRICITY":"0.00015630","APOAPSIS":"433.198","SEMIMAJOR_AXIS":"6810.268","MEAN_ANOMALY":"327.9470","OBJECT_TYPE":"PAYLOAD","TIME_SYSTEM":"UTC","DECAY_DATE":null,"RA_OF_ASC_NODE":"145.6124","EPHEMERIS_TYPE":"0","REF_FRAME":"TEME","OBJECT_NAME":"STARLINK-5829","MEAN_MOTION":"15.44743697","NORAD_CAT_ID":"56347","ARG_OF_PERICENTER":"88.7550","FILE":"3916549","MEAN_MOTION_DDOT":"0.0000000000000","OBJECT_ID":"2023-058AG","CENTER_NAME":"EARTH","RCS_SIZE":"LARGE","EPOCH":"2023-05-24T22:00:00.999936","TLE_LINE1":"1 56347U 23058AG  23144.91667824 -.00897039  00000-0 -20866-1 0  9991","MEAN_ELEMENT_THEORY":"SGP4","BSTAR":"-0.02086600000000","LAUNCH_DATE":"2023-04-27","MEAN_MOTION_DOT":"-0.00897039","INCLINATION":"97.6551","PERIOD":"93.219","REV_AT_EPOCH":"130","SITE":"AFWTR","COUNTRY_CODE":"US"},{"ARG_OF_PERICENTER":"90.2101","NORAD_CAT_ID":"56348","FILE":"3916549","OBJECT_NAME":"STARLINK-5888","REF_FRAME":"TEME","MEAN_MOTION":"15.44628109","RCS_SIZE":"LARGE","OBJECT_ID":"2023-058AH","MEAN_MOTION_DDOT":"0.0000000000000","CENTER_NAME":"EARTH","MEAN_ELEMENT_THEORY":"SGP4","BSTAR":"-0.02092000000000","EPOCH":"2023-05-24T22:00:00.999936","TLE_LINE1":"1 56348U 23058AH  23144.91667824 -.00895916  00000-0 -20920-1 0  9995","REV_AT_EPOCH":"130","LAUNCH_DATE":"2023-04-27","INCLINATION":"97.6552","MEAN_MOTION_DOT":"-0.00895916","PERIOD":"93.226","SITE":"AFWTR","COUNTRY_CODE":"US","ELEMENT_SET_NO":"999","PERIAPSIS":"431.413","CLASSIFICATION_TYPE":"U","TLE_LINE2":"2 56348  97.6552 145.6116 0001557  90.2101 324.7928 15.44628109  1306","GP_ID":"232453582","ECCENTRICITY":"0.00015570","APOAPSIS":"433.533","SEMIMAJOR_AXIS":"6810.608","MEAN_ANOMALY":"324.7928","OBJECT_TYPE":"PAYLOAD","TIME_SYSTEM":"UTC","DECAY_DATE":null,"EPHEMERIS_TYPE":"0","RA_OF_ASC_NODE":"145.6116"},{"RA_OF_ASC_NODE":"144.9212","EPHEMERIS_TYPE":"0","DECAY_DATE":null,"TIME_SYSTEM":"UTC","MEAN_ANOMALY":"223.4066","OBJECT_TYPE":"PAYLOAD","SEMIMAJOR_AXIS":"6802.797","APOAPSIS":"426.636","ECCENTRICITY":"0.00029010","TLE_LINE2":"2 56349  97.6551 144.9212 0002901 136.7411 223.4066 15.47289158  4984","GP_ID":"232453741","CLASSIFICATION_TYPE":"U","PERIAPSIS":"422.689","ELEMENT_SET_NO":"999","COUNTRY_CODE":"US","SITE":"AFWTR","PERIOD":"93.066","MEAN_MOTION_DOT":"0.00039552","LAUNCH_DATE":"2023-04-27","INCLINATION":"97.6551","REV_AT_EPOCH":"498","TLE_LINE1":"1 56349U 23058AJ  23144.25830727  .00039552  00000-0  77463-3 0  9997","EPOCH":"2023-05-24T06:11:57.748128","MEAN_ELEMENT_THEORY":"SGP4","BSTAR":"0.00077463000000","CENTER_NAME":"EARTH","OBJECT_ID":"2023-058AJ","MEAN_MOTION_DDOT":"0.0000000000000","RCS_SIZE":"LARGE","MEAN_MOTION":"15.47289158","OBJECT_NAME":"STARLINK-5887","REF_FRAME":"TEME","FILE":"3916549","NORAD_CAT_ID":"56349","ARG_OF_PERICENTER":"136.7411"},{"ECCENTRICITY":"0.00015180","TLE_LINE2":"2 56350  97.6551 145.6133 0001518  83.3879 335.3782 15.44959547  1308","GP_ID":"232453634","CLASSIFICATION_TYPE":"U","PERIAPSIS":"430.465","ELEMENT_SET_NO":"999","SEMIMAJOR_AXIS":"6809.634","APOAPSIS":"432.533","TIME_SYSTEM":"UTC","DECAY_DATE":null,"OBJECT_TYPE":"PAYLOAD","MEAN_ANOMALY":"335.3782","RA_OF_ASC_NODE":"145.6133","EPHEMERIS_TYPE":"0","MEAN_MOTION":"15.44959547","OBJECT_NAME":"STARLINK-5886","REF_FRAME":"TEME","FILE":"3916549","NORAD_CAT_ID":"56350","ARG_OF_PERICENTER":"83.3879","CENTER_NAME":"EARTH","OBJECT_ID":"2023-058AK","MEAN_MOTION_DDOT":"0.0000000000000","RCS_SIZE":"LARGE","PERIOD":"93.206","INCLINATION":"97.6551","LAUNCH_DATE":"2023-04-27","MEAN_MOTION_DOT":"-0.00905385","REV_AT_EPOCH":"130","TLE_LINE1":"1 56350U 23058AK  23144.91667824 -.00905385  00000-0 -20922-1 0  9992","EPOCH":"2023-05-24T22:00:00.999936","BSTAR":"-0.02092200000000","MEAN_ELEMENT_THEORY":"SGP4","COUNTRY_CODE":"US","SITE":"AFWTR"}];
